{"type": "FeatureCollection", "features": [ {"type": "Feature", "properties": {"norad_id": 37216, "name": "COSMO-SKYMED 4", "group": "resource", "lat": -77.75320514045957, "lon": -150.73443885879087, "alt_km": 630.8525750508261, "timestamp": "2025-12-14T07:33:19.134716+00:00", "meta": {"OBJECT_NAME": "COSMO-SKYMED 4", "OBJECT_ID": "2010-060A", "EPOCH": "2025-12-13T15:42:57.415680", "MEAN_MOTION": 14.8214548, "ECCENTRICITY": 0.00014216, "INCLINATION": 97.8807, "RA_OF_ASC_NODE": 168.9642, "ARG_OF_PERICENTER": 85.4311, "MEAN_ANOMALY": 274.7065, "EPHEMERIS_TYPE": 0, "CLASSIFICATION_TYPE": "U", "NORAD_CAT_ID": 37216, "ELEMENT_SET_NO": 999, "REV_AT_EPOCH": 81708, "BSTAR": 0.00011371886, "MEAN_MOTION_DOT": 8.53e-06, "MEAN_MOTION_DDOT": 0}, "tle": {"line1": "1 37216U 10060A   25347.65483120  .00000853  00000+0  11372-3 0  9998", "line2": "2 37216  97.8807 168.9642 0001421  85.4311 274.7065 14.82145480817088"}}, "geometry": {"type": "Point", "coordinates": [-150.73443885879087, -77.75320514045957]}}, {"type": "Feature", "properties": {"norad_id": 37387, "name": "RESOURCESAT-2", "group": "resource", "lat": -77.82888202362365, "lon": -173.96544436942432, "alt_km": 830.6250107468086, "timestamp": "2025-12-14T07:33:19.134727+00:00", "meta": {"OBJECT_NAME": "RESOURCESAT-2", "OBJECT_ID": "2011-015A", "EPOCH": "2025-12-13T15:07:33.465216", "MEAN_MOTION": 14.21597725, "ECCENTRICITY": 0.0006396, "INCLINATION": 98.7878, "RA_OF_ASC_NODE": 51.1781, "ARG_OF_PERICENTER": 40.385, "MEAN_ANOMALY": 319.7801, "EPHEMERIS_TYPE": 0, "CLASSIFICATION_TYPE": "U", "NORAD_CAT_ID": 37387, "ELEMENT_SET_NO": 999, "REV_AT_EPOCH": 75981, "BSTAR": 0.00012552291, "MEAN_MOTION_DOT": 2.31e-06, "MEAN_MOTION_DDOT": 0}, "tle": {"line1": "1 37387U 11015A   25347.63024844  .00000231  00000+0  12552-3 0  9991", "line2": "2 37387  98.7878  51.1781 0006396  40.3850 319.7801 14.21597725759816"}}, "geometry": {"type": "Point", "coordinates": [-173.96544436942432, -77.82888202362365]}}, {"type": "Feature", "properties": {"norad_id": 37781, "name": "HAIYANG-2A", "group": "resource", "lat": 65.55241350645119, "lon": -31.994029397890166, "alt_km": 960.3784457126312, "timestamp": "2025-12-14T07:33:19.134738+00:00", "meta": {"OBJECT_NAME": "HAIYANG-2A", "OBJECT_ID": "2011-043A", "EPOCH": "2025-12-13T15:33:23.090688", "MEAN_MOTION": 13.78834514, "ECCENTRICITY": 0.00016639, "INCLINATION": 99.3383, "RA_OF_ASC_NODE": 348.5687, "ARG_OF_PERICENTER": 81.7566, "MEAN_ANOMALY": 278.3774, "EPHEMERIS_TYPE": 0, "CLASSIFICATION_TYPE": "U", "NORAD_CAT_ID": 37781, "ELEMENT_SET_NO": 999, "REV_AT_EPOCH": 72111, "BSTAR": -6.7072149e-05, "MEAN_MOTION_DOT": -1.12e-06, "MEAN_MOTION_DDOT": 0}, "tle": {"line1": "1 37781U 11043A   25347.64818392 -.00000112  00000+0 -67072-4 0  9998", "line2": "2 37781  99.3383 348.5687 0001663  81.7566 278.3774 13.78834514721117"}}, "geometry": {"type": "Point", "coordinates": [-31.994029397890166, 65.55241350645119]}}, {"type": "Feature", "properties": {"norad_id": 37791, "name": "RASAT", "group": "resource", "lat": -31.719787094240093, "lon": 82.57600686028135, "alt_km": 674.353539705161, "timestamp": "2025-12-14T07:33:19.134749+00:00", "meta": {"OBJECT_NAME": "RASAT", "OBJECT_ID": "2011-044D", "EPOCH": "2025-12-13T17:33:28.657152", "MEAN_MOTION": 14.67914135, "ECCENTRICITY": 0.00218586, "INCLINATION": 98.0645, "RA_OF_ASC_NODE": 76.974, "ARG_OF_PERICENTER": 62.0603, "MEAN_ANOMALY": 66.0324, "EPHEMERIS_TYPE": 0, "CLASSIFICATION_TYPE": "U", "NORAD_CAT_ID": 37791, "ELEMENT_SET_NO": 999, "REV_AT_EPOCH": 76597, "BSTAR": 0.00026323163, "MEAN_MOTION_DOT": 1.462e-05, "MEAN_MOTION_DDOT": 0}, "tle": {"line1": "1 37791U 11044D   25347.73158168  .00001462  00000+0  26323-3 0  9998", "line2": "2 37791  98.0645  76.9740 0021858  62.0603  66.0324 14.67914135765971"}}, "geometry": {"type": "Point", "coordinates": [82.57600686028135, -31.719787094240093]}}, {"type": "Feature", "properties": {"norad_id": 37841, "name": "SRMSAT", "group": "resource", "lat": 1.5826183142836519, "lon": -85.94241946662345, "alt_km": 859.4132052579953, "timestamp": "2025-12-14T07:33:19.134760+00:00", "meta": {"OBJECT_NAME": "SRMSAT", "OBJECT_ID": "2011-058D", "EPOCH": "2025-12-13T15:35:14.637408", "MEAN_MOTION": 14.11511811, "ECCENTRICITY": 0.00117776, "INCLINATION": 19.9712, "RA_OF_ASC_NODE": 102.4443, "ARG_OF_PERICENTER": 323.4918, "MEAN_ANOMALY": 63.7335, "EPHEMERIS_TYPE": 0, "CLASSIFICATION_TYPE": "U", "NORAD_CAT_ID": 37841, "ELEMENT_SET_NO": 999, "REV_AT_EPOCH": 73157, "BSTAR": 0.0001231682, "MEAN_MOTION_DOT": 4.92e-06, "MEAN_MOTION_DDOT": 0}, "tle": {"line1": "1 37841U 11058D   25347.64947497  .00000492  00000+0  12317-3 0  9990", "line2": "2 37841  19.9712 102.4443 0011777 323.4918  63.7335 14.11511811731579"}}, "geometry": {"type": "Point", "coordinates": [-85.94241946662345, 1.5826183142836519]}}, {"type": "Feature", "properties": {"norad_id": 38012, "name": "PLEIADES 1A", "group": "resource", "lat": 68.87179576141936, "lon": 39.20019613437084, "alt_km": 690.205236670633, "timestamp": "2025-12-14T07:33:19.134771+00:00", "meta": {"OBJECT_NAME": "PLEIADES 1A", "OBJECT_ID": "2011-076F", "EPOCH": "2025-12-13T17:06:36.650016", "MEAN_MOTION": 14.58563946, "ECCENTRICITY": 0.00012839, "INCLINATION": 98.1819, "RA_OF_ASC_NODE": 60.4661, "ARG_OF_PERICENTER": 74.269, "MEAN_ANOMALY": 77.7223, "EPHEMERIS_TYPE": 0, "CLASSIFICATION_TYPE": "U", "NORAD_CAT_ID": 38012, "ELEMENT_SET_NO": 999, "REV_AT_EPOCH": 74495, "BSTAR": 0.00019290877, "MEAN_MOTION_DOT": 8.51e-06, "MEAN_MOTION_DDOT": 0}, "tle": {"line1": "1 38012U 11076F   25347.71292419  .00000851  00000+0  19291-3 0  9993", "line2": "2 38012  98.1819  60.4661 0001283  74.2690  77.7223 14.58563946744955"}}, "geometry": {"type": "Point", "coordinates": [39.20019613437084, 68.87179576141936]}}, {"type": "Feature", "properties": {"norad_id": 38038, "name": "ZIYUAN 1-02C (ZY 1-02C)", "group": "resource", "lat": -41.57603862928982, "lon": -133.2631816298509, "alt_km": 771.446630289578, "timestamp": "2025-12-14T07:33:19.134782+00:00", "meta": {"OBJECT_NAME": "ZIYUAN 1-02C (ZY 1-02C)", "OBJECT_ID": "2011-079A", "EPOCH": "2025-12-13T16:14:48.213024", "MEAN_MOTION": 14.38014728, "ECCENTRICITY": 0.00072208, "INCLINATION": 98.4329, "RA_OF_ASC_NODE": 53.6729, "ARG_OF_PERICENTER": 135.8307, "MEAN_ANOMALY": 25.9365, "EPHEMERIS_TYPE": 0, "CLASSIFICATION_TYPE": "U", "NORAD_CAT_ID": 38038, "ELEMENT_SET_NO": 999, "REV_AT_EPOCH": 73254, "BSTAR": 0.00033282155, "MEAN_MOTION_DOT": 9.64e-06, "MEAN_MOTION_DDOT": 0}, "tle": {"line1": "1 38038U 11079A   25347.67694691  .00000964  00000+0  33282-3 0  9998", "line2": "2 38038  98.4329  53.6729 0007220 135.8307  25.9365 14.38014728732548"}}, "geometry": {"type": "Point", "coordinates": [-133.2631816298509, -41.57603862928982]}}, {"type": "Feature", "properties": {"norad_id": 38046, "name": "ZIYUAN 3-1 (ZY 3-1)", "group": "resource", "lat": 36.82138585792709, "lon": 49.357217401746716, "alt_km": 358.93417719814715, "timestamp": "2025-12-14T07:33:19.134792+00:00", "meta": {"OBJECT_NAME": "ZIYUAN 3-1 (ZY 3-1)", "OBJECT_ID": "2012-001A", "EPOCH": "2025-12-13T16:05:20.406048", "MEAN_MOTION": 15.687576, "ECCENTRICITY": 0.00017819, "INCLINATION": 97.1756, "RA_OF_ASC_NODE": 54.1098, "ARG_OF_PERICENTER": 347.309, "MEAN_ANOMALY": 12.8127, "EPHEMERIS_TYPE": 0, "CLASSIFICATION_TYPE": "U", "NORAD_CAT_ID": 38046, "ELEMENT_SET_NO": 999, "REV_AT_EPOCH": 77511, "BSTAR": 0.00071012316, "MEAN_MOTION_DOT": 0.00081501, "MEAN_MOTION_DDOT": 0}, "tle": {"line1": "1 38046U 12001A   25347.67037507  .00081501  00000+0  71012-3 0  9999", "line2": "2 38046  97.1756  54.1098 0001781 347.3090  12.8127 15.68757600775115"}}, "geometry": {"type": "Point", "coordinates": [49.357217401746716, 36.82138585792709]}}, {"type": "Feature", "properties": {"norad_id": 38338, "name": "ARIRANG-3 (KOMPSAT-3)", "group": "resource", "lat": -14.186290351747195, "lon": -54.960872217930564, "alt_km": 688.603132980832, "timestamp": "2025-12-14T07:33:19.134804+00:00", "meta": {"OBJECT_NAME": "ARIRANG-3 (KOMPSAT-3)", "OBJECT_ID": "2012-025B", "EPOCH": "2025-12-13T15:11:30.888096", "MEAN_MOTION": 14.61714332, "ECCENTRICITY": 0.00053039, "INCLINATION": 98.3323, "RA_OF_ASC_NODE": 302.2291, "ARG_OF_PERICENTER": 335.9727, "MEAN_ANOMALY": 24.1226, "EPHEMERIS_TYPE": 0, "CLASSIFICATION_TYPE": "U", "NORAD_CAT_ID": 38338, "ELEMENT_SET_NO": 999, "REV_AT_EPOCH": 72423, "BSTAR": 0.00018751706, "MEAN_MOTION_DOT": 8.86e-06, "MEAN_MOTION_DDOT": 0}, "tle": {"line1": "1 38338U 12025B   25347.63299639  .00000886  00000+0  18752-3 0  9990", "line2": "2 38338  98.3323 302.2291 0005303 335.9727  24.1226 14.61714332724238"}}, "geometry": {"type": "Point", "coordinates": [-54.960872217930564, -14.186290351747195]}}, {"type": "Feature", "properties": {"norad_id": 38709, "name": "EXACTVIEW-1 (ADS-1B)", "group": "resource", "lat": 43.93054609029699, "lon": -74.51657369649901, "alt_km": 811.3557901015756, "timestamp": "2025-12-14T07:33:19.134815+00:00", "meta": {"OBJECT_NAME": "EXACTVIEW-1 (ADS-1B)", "OBJECT_ID": "2012-039C", "EPOCH": "2025-12-13T14:04:12.198720", "MEAN_MOTION": 14.24908498, "ECCENTRICITY": 0.00106311, "INCLINATION": 98.9636, "RA_OF_ASC_NODE": 95.9941, "ARG_OF_PERICENTER": 351.7555, "MEAN_ANOMALY": 8.3447, "EPHEMERIS_TYPE": 0, "CLASSIFICATION_TYPE": "U", "NORAD_CAT_ID": 38709, "ELEMENT_SET_NO": 999, "REV_AT_EPOCH": 69627, "BSTAR": 0.00011932674, "MEAN_MOTION_DOT": 2.32e-06, "MEAN_MOTION_DDOT": 0}, "tle": {"line1": "1 38709U 12039C   25347.58625230  .00000232  00000+0  11933-3 0  9990", "line2": "2 38709  98.9636  95.9941 0010631 351.7555   8.3447 14.24908498696274"}}, "geometry": {"type": "Point", "coordinates": [-74.51657369649901, 43.93054609029699]}}]}